[
    {
        "id": 76,
        "name": "Galvez Incorporated",
        "address": {
            "streetAddress": "1635 Pulvinar Ct",
            "city": "Fort Mill",
            "state": "IN",
            "zip": "25247"
        }
    },
    {
        "id": 77,
        "name": "Traficante Incorporated",
        "address": {
            "streetAddress": "5325 Convallis Ave",
            "city": "Lafayette",
            "state": "WI",
            "zip": "90355"
        }
    },
    {
        "id": 78,
        "name": "Wooten Industries",
        "address": {
            "streetAddress": "8501 Donec Rd",
            "city": "Kearney",
            "state": "GA",
            "zip": "50497"
        }
    },
    {
        "id": 79,
        "name": "Guendoud Global",
        "address": {
            "streetAddress": "7027 Aliquam Dr",
            "city": "Centereach",
            "state": "KY",
            "zip": "74294"
        }
    },
    {
        "id": 80,
        "name": "Hickey Brothers",
        "address": {
            "streetAddress": "7023 Morbi Ave",
            "city": "Killeen",
            "state": "HI",
            "zip": "72003"
        }
    },
    {
        "id": 81,
        "name": "Dority Services",
        "address": {
            "streetAddress": "3975 Scelerisque St",
            "city": "Cranford",
            "state": "MN",
            "zip": "88090"
        }
    },
    {
        "id": 82,
        "name": "Price Brothers",
        "address": {
            "streetAddress": "6083 Egestas Dr",
            "city": "Dunn",
            "state": "NH",
            "zip": "76090"
        }
    },
    {
        "id": 83,
        "name": "Birnstill Foods",
        "address": {
            "streetAddress": "5872 Etiam Ave",
            "city": "Los Angeles",
            "state": "AZ",
            "zip": "92632"
        }
    },
    {
        "id": 84,
        "name": "Mcclamroch Foods",
        "address": {
            "streetAddress": "1301 Aenean Rd",
            "city": "Arcadia",
            "state": "MI",
            "zip": "67448"
        }
    },
    {
        "id": 85,
        "name": "Mcdonough Shipping",
        "address": {
            "streetAddress": "8911 Massa Ln",
            "city": "Saint Louis",
            "state": "MN",
            "zip": "28865"
        }
    },
    {
        "id": 86,
        "name": "Quintana Marketing",
        "address": {
            "streetAddress": "2032 Dolor Ln",
            "city": "Cedartown",
            "state": "WY",
            "zip": "49926"
        }
    },
    {
        "id": 87,
        "name": "Fox International",
        "address": {
            "streetAddress": "8593 Eget Dr",
            "city": "Northern Ca",
            "state": "AL",
            "zip": "22502"
        }
    },
    {
        "id": 88,
        "name": "Theiss Global",
        "address": {
            "streetAddress": "2775 Mattis St",
            "city": "Church Point",
            "state": "CA",
            "zip": "20130"
        }
    },
    {
        "id": 89,
        "name": "Stroll International",
        "address": {
            "streetAddress": "9748 Eget Ave",
            "city": "Palm Beach Gardens",
            "state": "CT",
            "zip": "10419"
        }
    },
    {
        "id": 90,
        "name": "Tisi Shipping",
        "address": {
            "streetAddress": "2764 Libero Dr",
            "city": "Blue Springs",
            "state": "ND",
            "zip": "31410"
        }
    },
    {
        "id": 91,
        "name": "Kem Shipping",
        "address": {
            "streetAddress": "6238 Sed St",
            "city": "Cedartown",
            "state": "OK",
            "zip": "11281"
        }
    },
    {
        "id": 92,
        "name": "Penning Corporation",
        "address": {
            "streetAddress": "1162 Eget Ct",
            "city": "Augusta",
            "state": "TX",
            "zip": "52959"
        }
    },
    {
        "id": 93,
        "name": "Mosher LLC",
        "address": {
            "streetAddress": "6402 Nunc Ct",
            "city": "Vancouver",
            "state": "TX",
            "zip": "14296"
        }
    },
    {
        "id": 94,
        "name": "Sadler and Sons",
        "address": {
            "streetAddress": "1639 Elit Ct",
            "city": "Alhambra",
            "state": "TN",
            "zip": "40607"
        }
    },
    {
        "id": 95,
        "name": "Nicholson Services",
        "address": {
            "streetAddress": "4275 Lacus St",
            "city": "Macomb",
            "state": "WY",
            "zip": "61451"
        }
    },
    {
        "id": 96,
        "name": "Jones Industries",
        "address": {
            "streetAddress": "2221 Sagittis Ct",
            "city": "Costa Mesa",
            "state": "MN",
            "zip": "19445"
        }
    },
    {
        "id": 97,
        "name": "Wimmer LLC",
        "address": {
            "streetAddress": "4227 Risus Rd",
            "city": "Pharr",
            "state": "NV",
            "zip": "14067"
        }
    },
    {
        "id": 98,
        "name": "Rydinsky Services",
        "address": {
            "streetAddress": "7200 Magna Ln",
            "city": "Powder Springs",
            "state": "VT",
            "zip": "73490"
        }
    },
    {
        "id": 99,
        "name": "Caffrey LLC",
        "address": {
            "streetAddress": "6638 Porttitor Rd",
            "city": "Harrisburg",
            "state": "ID",
            "zip": "40682"
        }
    },
    {
        "id": 100,
        "name": "Crumbliss Industries",
        "address": {
            "streetAddress": "6498 Turpis Dr",
            "city": "Lockport",
            "state": "VT",
            "zip": "15904"
        }
    },
    {
        "id": 101,
        "name": "Womack Foods",
        "address": {
            "streetAddress": "7730 Ipsum Rd",
            "city": "Kingsley",
            "state": "IL",
            "zip": "73646"
        }
    },
    {
        "id": 102,
        "name": "Mcdonough Technologies",
        "address": {
            "streetAddress": "6867 Sollicitudin St",
            "city": "Chambersburg",
            "state": "LA",
            "zip": "67131"
        }
    },
    {
        "id": 103,
        "name": "Torres Technologies",
        "address": {
            "streetAddress": "256 Facilisis Rd",
            "city": "Mystic",
            "state": "VT",
            "zip": "28220"
        }
    },
    {
        "id": 104,
        "name": "Holden Shipping",
        "address": {
            "streetAddress": "1685 Odio Dr",
            "city": "Johnson County",
            "state": "VT",
            "zip": "92748"
        }
    },
    {
        "id": 105,
        "name": "Dupuy Services",
        "address": {
            "streetAddress": "6583 Dui St",
            "city": "Lockhart",
            "state": "WI",
            "zip": "47948"
        }
    },
    {
        "id": 106,
        "name": "Marshall Computing",
        "address": {
            "streetAddress": "4159 Adipiscing Dr",
            "city": "Rio Rancho",
            "state": "DC",
            "zip": "58553"
        }
    },
    {
        "id": 107,
        "name": "Heath Corporation",
        "address": {
            "streetAddress": "3087 Tortor Dr",
            "city": "Wasington Dc",
            "state": "WV",
            "zip": "36793"
        }
    },
    {
        "id": 108,
        "name": "Colgan Global",
        "address": {
            "streetAddress": "540 Massa St",
            "city": "Boulder",
            "state": "NV",
            "zip": "70498"
        }
    },
    {
        "id": 109,
        "name": "Gibbs Corporation",
        "address": {
            "streetAddress": "4780 Tellus St",
            "city": "Roxboro",
            "state": "MD",
            "zip": "31676"
        }
    },
    {
        "id": 110,
        "name": "Shaw Shipping",
        "address": {
            "streetAddress": "2708 Malesuada Ln",
            "city": "Calgary",
            "state": "LA",
            "zip": "66181"
        }
    },
    {
        "id": 111,
        "name": "Coleman LLC",
        "address": {
            "streetAddress": "381 At Ln",
            "city": "Sunny",
            "state": "KS",
            "zip": "81755"
        }
    },
    {
        "id": 112,
        "name": "Velasco Technologies",
        "address": {
            "streetAddress": "5115 Quis Ave",
            "city": "Akron",
            "state": "DE",
            "zip": "24722"
        }
    },
    {
        "id": 113,
        "name": "Jean Corporation",
        "address": {
            "streetAddress": "2174 Sollicitudin St",
            "city": "Berlin",
            "state": "MI",
            "zip": "23154"
        }
    },
    {
        "id": 114,
        "name": "Mauser Foods",
        "address": {
            "streetAddress": "8314 Vestibulum Rd",
            "city": "North Barrington",
            "state": "KS",
            "zip": "42120"
        }
    },
    {
        "id": 115,
        "name": "Shelton Industries",
        "address": {
            "streetAddress": "3479 Lectus Dr",
            "city": "Lindale",
            "state": "CT",
            "zip": "11022"
        }
    },
    {
        "id": 116,
        "name": "Collier Incorporated",
        "address": {
            "streetAddress": "8003 Libero Rd",
            "city": "Winters",
            "state": "MS",
            "zip": "72932"
        }
    },
    {
        "id": 117,
        "name": "Gupta Computing",
        "address": {
            "streetAddress": "6915 Ac Rd",
            "city": "Phoenix",
            "state": "FL",
            "zip": "69402"
        }
    },
    {
        "id": 118,
        "name": "Petti Industries",
        "address": {
            "streetAddress": "2849 Augue St",
            "city": "Los Angeles",
            "state": "MA",
            "zip": "45647"
        }
    },
    {
        "id": 119,
        "name": "Bartovics Marketing",
        "address": {
            "streetAddress": "9847 Lacus St",
            "city": "Douglasville",
            "state": "UT",
            "zip": "90724"
        }
    },
    {
        "id": 120,
        "name": "Peschke Corporation",
        "address": {
            "streetAddress": "6744 Lorem Ave",
            "city": "Siloam Springs",
            "state": "NM",
            "zip": "57083"
        }
    },
    {
        "id": 121,
        "name": "Hovanec Incorporated",
        "address": {
            "streetAddress": "6134 Nec Rd",
            "city": "North Kingstown",
            "state": "MN",
            "zip": "32735"
        }
    },
    {
        "id": 122,
        "name": "Duffy Incorporated",
        "address": {
            "streetAddress": "4306 Suspendisse Rd",
            "city": "Rockville",
            "state": "KS",
            "zip": "56862"
        }
    },
    {
        "id": 123,
        "name": "Mosher and Sons",
        "address": {
            "streetAddress": "8672 Pretium St",
            "city": "Point Richmond",
            "state": "TN",
            "zip": "24423"
        }
    },
    {
        "id": 124,
        "name": "Harkema Services",
        "address": {
            "streetAddress": "3455 Quis Rd",
            "city": "Wabash",
            "state": "WY",
            "zip": "96011"
        }
    },
    {
        "id": 125,
        "name": "Reitz Services",
        "address": {
            "streetAddress": "4383 Etiam Ln",
            "city": "Salt Lake City",
            "state": "SD",
            "zip": "77341"
        }
    },
    {
        "id": 126,
        "name": "Lynn Incorporated",
        "address": {
            "streetAddress": "7353 Ac Ave",
            "city": "Eglin Afb",
            "state": "AZ",
            "zip": "63664"
        }
    },
    {
        "id": 127,
        "name": "Shah Brothers",
        "address": {
            "streetAddress": "568 Consequat Rd",
            "city": "Austin",
            "state": "MA",
            "zip": "92622"
        }
    },
    {
        "id": 128,
        "name": "Johnson and Sons",
        "address": {
            "streetAddress": "3697 Sit Ln",
            "city": "Oxford",
            "state": "AL",
            "zip": "94539"
        }
    },
    {
        "id": 129,
        "name": "Mislang Incorporated",
        "address": {
            "streetAddress": "6087 Nec Dr",
            "city": "Dayton",
            "state": "PA",
            "zip": "94502"
        }
    },
    {
        "id": 130,
        "name": "Hughesdkaiya Technologies",
        "address": {
            "streetAddress": "3428 Placerat Ct",
            "city": "Mount Vernon",
            "state": "AK",
            "zip": "73162"
        }
    },
    {
        "id": 131,
        "name": "Morris Global",
        "address": {
            "streetAddress": "5181 Egestas St",
            "city": "Saint Pauls",
            "state": "NJ",
            "zip": "48194"
        }
    },
    {
        "id": 132,
        "name": "Leavitt Shipping",
        "address": {
            "streetAddress": "5960 Nunc Ln",
            "city": "Thomaston",
            "state": "VA",
            "zip": "69970"
        }
    },
    {
        "id": 133,
        "name": "Mcduff and Sons",
        "address": {
            "streetAddress": "426 Tincidunt Rd",
            "city": "Long Beach",
            "state": "ME",
            "zip": "36271"
        }
    },
    {
        "id": 134,
        "name": "Castrucci Marketing",
        "address": {
            "streetAddress": "6568 Placerat Rd",
            "city": "Shrewsbury",
            "state": "UT",
            "zip": "79786"
        }
    },
    {
        "id": 135,
        "name": "Maher Global",
        "address": {
            "streetAddress": "5874 Consequat St",
            "city": "Seattle",
            "state": "GA",
            "zip": "79689"
        }
    },
    {
        "id": 136,
        "name": "Lopez Marketing",
        "address": {
            "streetAddress": "9617 At Ct",
            "city": "Oakland",
            "state": "NH",
            "zip": "70354"
        }
    },
    {
        "id": 137,
        "name": "White Incorporated",
        "address": {
            "streetAddress": "3769 Etiam St",
            "city": "Pickerington",
            "state": "UT",
            "zip": "12427"
        }
    },
    {
        "id": 138,
        "name": "Best Technologies",
        "address": {
            "streetAddress": "809 Placerat Ln",
            "city": "Sioux Falls",
            "state": "NC",
            "zip": "95516"
        }
    },
    {
        "id": 139,
        "name": "Bartovics International",
        "address": {
            "streetAddress": "2690 Facilisis Ct",
            "city": "Osgood",
            "state": "MN",
            "zip": "49482"
        }
    },
    {
        "id": 140,
        "name": "Ventura Brothers",
        "address": {
            "streetAddress": "6895 Sollicitudin St",
            "city": "Prince George",
            "state": "MS",
            "zip": "70431"
        }
    },
    {
        "id": 141,
        "name": "Boudreaux Marketing",
        "address": {
            "streetAddress": "9284 Porta Dr",
            "city": "Pensacola",
            "state": "RI",
            "zip": "12729"
        }
    },
    {
        "id": 142,
        "name": "Chang Industries",
        "address": {
            "streetAddress": "6622 Magna Ave",
            "city": "Saltilo",
            "state": "CT",
            "zip": "10088"
        }
    },
    {
        "id": 143,
        "name": "Ciborowski Technologies",
        "address": {
            "streetAddress": "9727 Ac Dr",
            "city": "Shorewood",
            "state": "MS",
            "zip": "73310"
        }
    },
    {
        "id": 144,
        "name": "Forgey Foods",
        "address": {
            "streetAddress": "3607 Eget Dr",
            "city": "Burke",
            "state": "PA",
            "zip": "16145"
        }
    },
    {
        "id": 145,
        "name": "Ann Brothers",
        "address": {
            "streetAddress": "6926 Nec Ln",
            "city": "Greensboro",
            "state": "MO",
            "zip": "37357"
        }
    },
    {
        "id": 146,
        "name": "Burton Global",
        "address": {
            "streetAddress": "7782 Dolor Ave",
            "city": "New Millport",
            "state": "VA",
            "zip": "84890"
        }
    },
    {
        "id": 147,
        "name": "Kenedy Global",
        "address": {
            "streetAddress": "8358 Porta St",
            "city": "Somerset",
            "state": "NV",
            "zip": "39660"
        }
    },
    {
        "id": 148,
        "name": "Kimmel Incorporated",
        "address": {
            "streetAddress": "6858 Nec Ct",
            "city": "Seaside",
            "state": "AR",
            "zip": "20814"
        }
    },
    {
        "id": 149,
        "name": "Kimmel Technologies",
        "address": {
            "streetAddress": "6535 Ipsum Ln",
            "city": "Shinnston",
            "state": "DC",
            "zip": "65285"
        }
    },
    {
        "id": 150,
        "name": "Lester Marketing",
        "address": {
            "streetAddress": "4700 Dolor Ct",
            "city": "Mcdonough",
            "state": "ND",
            "zip": "10819"
        }
    }
]